id,name,network,address,suburb,postcode,lat,lng,remotenessArea,numberOfBeds,public
1174D2010,Auburn,Western Sydney,"18 Hargrave Rd, Auburn NSW 2144, Australia",Auburn,2144,-33.8602619,151.0331649,Major Cities,124.2,TRUE
1181H2010,Ballina,Northern NSW,"78 Cherry St, Ballina NSW 2478, Australia",Ballina,2478,-28.8631822,153.5644351,Inner Regional,71.3,TRUE
1170A2010,Balmain,Sydney,"Balmain Hospital, 29 Booth St, Balmain NSW 2041, Australia",Balmain,2041,-33.8594812,151.1814812,Major Cities,63.6,TRUE
1186M2020,Balranald (MPS),Far West,"41 Court St, Balranald NSW 2715, Australia",Balranald,2715,-34.645108,143.569428,Outer Regional,23.9,TRUE
1171D2270,Bankstown/ Lidcombe,South Western Sydney,"68 Eldridge Rd, Bankstown NSW 2200, Australia",Bankstown,2200,-33.9321735,151.0204374,Major Cities,388.3,TRUE
1185K2070,Baradine (MPS),Western NSW,"5 Darling St, Baradine NSW 2396, Australia",Baradine,2396,-30.9443022,149.067414,Remote,18,TRUE
1184M2030,Barham Koondrook,Murrumbidgee,"70 Punt Rd, Barham NSW 2732, Australia",Barham,2732,-35.6255022,144.1340296,Outer Regional,6,TRUE
1180J2020,Barraba (MPS),Hunter New England,"1 Edward St, Barraba NSW 2347, Australia",Barraba,2347,-30.3826205,150.6103878,Outer Regional,22,TRUE
1183N2010,Batemans Bay,Southern NSW,"7 Pacific St, Batemans Bay NSW 2536, Australia",Batemans Bay,2536,-35.7137371,150.1822526,Inner Regional,35,TRUE
1185L2010,Bathurst,Western NSW,"361 Howick St, West Bathurst NSW 2795, Australia",Bathurst,2795,-33.4061851,149.5722696,Inner Regional,112.8,TRUE
1184R2020,Batlow/Adelong (MPS),Murrumbidgee,"61 Pioneer St, Batlow NSW 2730, Australia",Batlow,2730,-35.5212686,148.1472982,Outer Regional,24,TRUE
1183N2020,Bega,Southern NSW,"Bega Hospital, 1 McKee Dr, Bega NSW 2550, Australia",Bega,2550,-36.6806556,149.8375637,Outer Regional,90,TRUE
1182H2030,Bellinger River,Mid North Coast,"43 Church St, Bellingen NSW 2454, Australia",Bellingen,2454,-30.4565703,152.8947585,Outer Regional,39.2,TRUE
1180Q2140,Belmont,Hunter New England,"Belmont Hospital, 16 Croudace Bay Rd, Belmont NSW 2280, Australia",Belmont,2280,-33.0254178,151.6484571,Major Cities,117.9,TRUE
1184M2040,Berrigan (MPS),Murrumbidgee,"Memorial Pl, Berrigan NSW 2712, Australia",Berrigan,2712,-35.6613865,145.8141282,Outer Regional,14,TRUE
1180J2030,Bingara (MPS),Hunter New England,"1 Keera St, Bingara NSW 2404, Australia",Bingara,2404,-29.8643755,150.5717958,Outer Regional,20.8,TRUE
1174D2030,Blacktown,Western Sydney,"44 Blacktown Rd, Blacktown NSW 2148, Australia",Blacktown,2148,-33.7753772,150.918913,Major Cities,415.1,TRUE
1185L2020,Blayney (MPS),Western NSW,"3 Osman St, Blayney NSW 2799, Australia",Blayney,2799,-33.5377015,149.2506995,Inner Regional,25.2,TRUE
1175D2040,Blue Mountains,Nepean Blue Mountains,"3 Woodlands Rd, Katoomba NSW 2780, Australia",Katoomba,2780,-33.7046177,150.3219832,Major Cities,91.1,TRUE
1180J2040,Boggabri (MPS),Hunter New England,"3 Wee Waa St, Boggabri NSW 2382, Australia",Boggabri,2382,-30.7122771,150.0415301,Outer Regional,20,TRUE
1183N2030,Bombala (MPS),Southern NSW,"126 Wellington St, Bombala NSW 2632, Australia",Bombala,2632,-36.9176232,149.2358764,Outer Regional,18,TRUE
1181H2070,Bonalbo,Northern NSW,"1 Hospital Rd, Bonalbo NSW 2469, Australia",Bonalbo,2469,-28.7339733,152.6224087,Outer Regional,0,TRUE
1184N2040,Boorowa (MPS),Murrumbidgee,"62 Dry St, Boorowa NSW 2586, Australia",Boorowa,2586,-34.4431287,148.7270754,Inner Regional,18,TRUE
1185K2010,Bourke (MPS),Western NSW,"Nurses Home, 26 Tarcoon St, Bourke NSW 2840, Australia",Bourke,2840,-30.0927312,145.9480627,Very remote,32.1,TRUE
1183N2160,Bourke Street Health Service,Southern NSW,"St John of God Hospital, 234 Bourke St, Goulburn NSW 2580, Australia",Goulburn,2580,-34.7487214,149.7193201,Inner Regional,42.6,TRUE
1171N2190,Bowral,South Western Sydney,"3 Mona Rd, Bowral NSW 2576, Australia",Bowral,2576,-34.4848676,150.4246533,Inner Regional,71,TRUE
1171D2280,Braeside,South Western Sydney,"340 Prairie Vale Rd, Prairiewood NSW 2176, Australia",Prairiewood,2176,-33.8619022,150.9027797,Major Cities,71,TRUE
1183N2050,Braidwood (MPS),Southern NSW,"77 Monkittee St, Braidwood NSW 2622, Australia",Braidwood,2622,-35.4426196,149.8049916,Inner Regional,30.6,TRUE
1185K2020,Brewarrina (MPS),Western NSW,"56 Doyle St, Brewarrina NSW 2839, Australia",Brewarrina,2839,-29.9616297,146.8646813,Very remote,20,TRUE
1186S2010,Broken Hill,Far West,"176 Thomas St, Broken Hill NSW 2880, Australia",Broken Hill,2880,-31.9477738,141.4539498,Outer Regional,121.2,TRUE
1180J2230,Bulahdelah - Myall Lakes,Hunter New England,"1 Richmond St, Bulahdelah NSW 2423, Australia",Bulahdelah,2423,-32.4039474,152.2118348,Inner Regional,0,TRUE
1173P2020,Bulli,Illawarra Shoalhaven,"33A Hospital Rd, Bulli NSW 2516, Australia",Bulli,2516,-34.3361781,150.906459,Major Cities,52.7,TRUE
1163G8080,Byron Central Hospital,Northern NSW,"54 Ewingsdale Rd, Ewingsdale NSW 2481, Australia",Byron Bay,2481,-28.6377599,153.5562824,Inner Regional,33.2,TRUE
1172C2020,Calvary,South Eastern Sydney,"91 Rocky Point Rd, Beverley Park NSW 2217, Australia",Kogarah,2217,-33.9756807,151.1357516,Major Cities,109,TRUE
1180Q2110,Calvary Mater Newcastle,Hunter New England,"4 Edith St, Waratah NSW 2298, Australia",Waratah,2298,-32.8987251,151.7214406,Major Cities,186.2,TRUE
1171D2050,Camden,South Western Sydney,"65 Menangle Rd, Camden NSW 2570, Australia",Camden,2570,-34.0626779,150.694089,Major Cities,56.6,TRUE
1181H2050,Campbell Coraki,Northern NSW,"Spring St, Coraki NSW 2471, Australia",Coraki,2471,-28.9923157,153.2770598,Inner Regional,0,TRUE
1171D2150,Campbelltown,South Western Sydney,"Therry Rd, Sydney NSW 2560, Australia",Campbelltown,2560,-34.0782295,150.8086082,Major Cities,411.3,TRUE
1185L2030,Canowindra,Western NSW,"Browns Ave, Canowindra NSW 2804, Australia",Canowindra,2804,-33.5566626,148.6765761,Inner Regional,10.2,TRUE
1170A2020,Canterbury,Sydney,"575 Canterbury Rd, Campsie NSW 2194, Australia",Campsie,2194,-33.9180967,151.099653,Major Cities,169.7,TRUE
1181H2060,Casino,Northern NSW,"1 Hotham St, Casino NSW 2470, Australia",Casino,2470,-28.869708,153.0349116,Inner Regional,26,TRUE
1180Q2020,Cessnock,Hunter New England,"1 View St, Cessnock NSW 2325, Australia",Cessnock,2325,-32.8273272,151.3516308,Inner Regional,48.5,TRUE
1163A2070,Children's Hospital Westmead,Sydney Children's Hospitals Network,"178 Hawkesbury Rd, Westmead NSW 2145, Australia",Westmead,2145,-33.8009656,150.9927697,Major Cities,278.6,TRUE
1185K2030,Cobar,Western NSW,"1 Lerida Rd, Cobar NSW 2835, Australia",Cobar,2835,-31.5167198,145.8195175,Remote,10,TRUE
1182H2080,Coffs Harbour,Mid North Coast,"Coffs Harbour Hospital, 345 Pacific Hwy, Coffs Harbour NSW 2450, Australia",Coffs Harbour,2450,-30.3179835,153.0940034,Inner Regional,268.9,TRUE
1173P2030,Coledale,Illawarra Shoalhaven,"636 Lawrence Hargrave Dr, Wombarra NSW 2515, Australia",Coledale,2515,-34.2839286,150.9515893,Major Cities,38,TRUE
1185K2040,Collarenebri (MPS),Western NSW,"1 Walgett St, Collarenebri NSW 2833, Australia",Collarenebri,2833,-29.5464258,148.5745151,Remote,13,TRUE
1170A2370,Concord,Sydney,"Repatriation General Hospital, 1A Hospital Rd, Concord West NSW 2138, Australia",Concord West,2139,-33.8326691,151.0969253,Major Cities,678.7,TRUE
1185L2050,Condobolin,Western NSW,"Railway Cottage, 1 Madline St, Condobolin NSW 2877, Australia",Condobolin,2877,-33.0817341,147.1522513,Outer Regional,22,TRUE
1185K2050,Coolah (MPS),Western NSW,"111 Martin St, Coolah NSW 2843, Australia",Coolah,2843,-31.821536,149.7099919,Outer Regional,26.9,TRUE
1184R2100,Coolamon (MPS),Murrumbidgee,"1 Dr Buchanan Dr, Coolamon NSW 2701, Australia",Coolamon,2701,-34.8202367,147.1991942,Inner Regional,14.1,TRUE
1183N2060,Cooma HS,Southern NSW,"1 Bent St, Cooma NSW 2630, Australia",Cooma,2630,-36.2417326,149.1289143,Inner Regional,35.7,TRUE
1185K2060,Coonabarabran,Western NSW,"Nurses Quarters, 101 Edwards St, Coonabarabran NSW 2357, Australia",Coonabarabran,2357,-31.2745938,149.2843541,Outer Regional,16.6,TRUE
1185K2090,Coonamble (MPS),Western NSW,"150 Castlereagh St, Coonamble NSW 2829, Australia",Coonamble,2829,-30.961232,148.3901977,Remote,22.9,TRUE
1184R2210,Cootamundra,Murrumbidgee,"120 MacKay St, Cootamundra NSW 2590, Australia",Cootamundra,2590,-34.634874,148.0143999,Inner Regional,24.5,TRUE
1476B2410,Coral Tree Family Centre,Northern Sydney,"Pacific Hwy, New South Wales, Australia",North Ryde,2113,-28.8618373,153.5183652,Major Cities,10.1,TRUE
1184M2060,Corowa (MPS),Murrumbidgee,"53 Guy St, Corowa NSW 2646, Australia",Corowa,2646,-35.9935979,146.3834193,Inner Regional,50.5,TRUE
1185L2060,Cowra,Western NSW,"Staff Qrtrs District Hosp, 64 Liverpool St, Cowra NSW 2794, Australia",Cowra,2794,-33.8310564,148.6926632,Inner Regional,37.6,TRUE
1183N2070,Crookwell,Southern NSW,"17 Kialla Rd, Crookwell NSW 2583, Australia",Crookwell,2583,-34.4647848,149.4680634,Inner Regional,18,TRUE
1184M2050,Culcairn (MPS),Murrumbidgee,"51 Balfour St, Culcairn NSW 2660, Australia",Culcairn,2660,-35.667238,147.0420232,Inner Regional,27,TRUE
1474D1020,Cumberland,Western Sydney,"1 Hainsworth St, Westmead NSW 2145, Australia",Westmead,2145,-33.8028228,150.9961849,Major Cities,310,TRUE
1173P2910,David Berry,Illawarra Shoalhaven,"David Berry Hospital, 85 Tannery Rd, Berry NSW 2535, Australia",Berry,2535,-34.7797126,150.6961942,Inner Regional,26,TRUE
1183N2080,Delegate (MPS),Southern NSW,"15 Craigie St, Delegate NSW 2633, Australia",Delegate,2633,-37.0449913,148.9456734,Outer Regional,13.1,TRUE
1184M2070,Deniliquin,Murrumbidgee,"411 Charlotte St, Deniliquin NSW 2710, Australia",Deniliquin,2710,-35.5241858,144.9632191,Inner Regional,35.1,TRUE
1180Q2100,Denman (MPS),Hunter New England,"51 Ogilvie St, Denman NSW 2328, Australia",Denman,2328,-32.3891651,150.6848382,Inner Regional,17,TRUE
1182H2090,Dorrigo (MPS),Mid North Coast,"Dorrigo Hospital, 14 Beech St, Dorrigo NSW 2453, Australia",Dorrigo,2453,-30.3407936,152.7138117,Outer Regional,26.9,TRUE
1185K2110,Dubbo,Western NSW,"Registrar Flats, 1 Myall St, Dubbo NSW 2830, Australia",Dubbo,2830,-32.241208,148.615296,Inner Regional,160.5,TRUE
1185K2120,Dunedoo (MPS),Western NSW,"70 Digilah St, Dunedoo NSW 2844, Australia",Dunedoo,2844,-32.0182851,149.3922371,Outer Regional,29.9,TRUE
1180Q2030,Dungog,Hunter New England,"58 Hospital Rd, Dungog NSW 2420, Australia",Dungog,2420,-32.4013793,151.7457781,Inner Regional,15,TRUE
1185L2080,Eugowra (MPS),Western NSW,"1 Cooper St, Eugowra NSW 2806, Australia",Eugowra,2806,-33.424451,148.365419,Outer Regional,14,TRUE
1171D2060,Fairfield,South Western Sydney,"360 Prairie Vale Rd, Prairiewood NSW 2176, Australia",Prairiewood,2176,-33.8591255,150.9033654,Major Cities,199.9,TRUE
1184M2080,Finley,Murrumbidgee,"Finley Hospital, 24 Dawe Ave, Finley NSW 2713, Australia",Finley,2713,-35.6416846,145.568053,Inner Regional,15.6,TRUE
1185L2090,Forbes,Western NSW,"1 Elgin St, Forbes NSW 2871, Australia",Forbes,2871,-33.3962734,148.0138206,Outer Regional,29.2,TRUE
1185K2130,Gilgandra (MPS),Western NSW,"Gilgandra Mps, 6 Chelmsford Ave, Gilgandra NSW 2827, Australia",Gilgandra,2827,-31.7041731,148.6648399,Outer Regional,31,TRUE
1180J2050,Glen Innes,Hunter New England,"Glen Innes District Hospital, 94 Taylor St, Glen Innes NSW 2370, Australia",Glen Innes,2370,-29.7336899,151.7318937,Outer Regional,31.3,TRUE
1180J2240,Gloucester,Hunter New England,"166 Church St, Gloucester NSW 2422, Australia",Gloucester,2422,-32.0148559,151.958353,Inner Regional,81,TRUE
1185K2140,Goodooga,Western NSW,"49 Hammond St, Goodooga NSW 2838, Australia",Goodooga,2831,-29.1109125,147.4556674,Very remote,0,TRUE
1177B2020,Gosford,Central Coast,"76 Holden St, Gosford NSW 2250, Australia",Gosford,2250,-33.4210685,151.3406283,Major Cities,482,TRUE
1183N2090,Goulburn,Southern NSW,"130 Goldsmith St, Goulburn NSW 2580, Australia",Goulburn,2580,-34.7478657,149.7131853,Inner Regional,134.8,TRUE
1172C2050,Gower Wilson (MPS),South Eastern Sydney,"1 Lagoon Rd, Lord Howe Island NSW 2898, Australia",Lord Howe Island,2898,-31.5323786,159.0698006,Very remote,0,TRUE
1181H2100,Grafton,Northern NSW,"174 Arthur St, Grafton NSW 2460, Australia",Grafton,2460,-29.675442,152.941662,Inner Regional,95.3,TRUE
1176B2080,Greenwich,Northern Sydney,"97 River Rd, Greenwich NSW 2065, Australia",Greenwich,2065,-33.8272574,151.1836413,Major Cities,38.4,TRUE
1185L2100,Grenfell (MPS),Western NSW,"80 Cowra Rd, Grenfell NSW 2810, Australia",Grenfell,2810,-33.8943554,148.1673418,Outer Regional,42.8,TRUE
1184R2050,Griffith,Murrumbidgee,"1 Noorebar Ave, Griffith NSW 2680, Australia",Griffith,2680,-34.2812099,146.0485032,Outer Regional,89.6,TRUE
1185K2100,Gulargambone (MPS),Western NSW,"47 Bourbah St, Gulargambone NSW 2828, Australia",Gulargambone,2828,-31.32986,148.469581,Outer Regional,12,TRUE
1185K2150,Gulgong (MPS),Western NSW,"112 Mayne St, Gulgong NSW 2852, Australia",Gulgong,2852,-32.3621602,149.5329093,Outer Regional,0,TRUE
1184R2060,Gundagai (MPS),Murrumbidgee,"Uralba Hostel, 50 Tor St, Gundagai NSW 2722, Australia",Gundagai,2722,-35.0530244,148.1021263,Inner Regional,30,TRUE
1180J2060,Gunnedah,Hunter New England,"2 Marquis St, Gunnedah NSW 2380, Australia",Gunnedah,2380,-30.9845711,150.249106,Outer Regional,35.5,TRUE
1180J2070,Guyra (MPS),Hunter New England,"44 Sole St, Guyra NSW 2365, Australia",Guyra,2365,-30.2126574,151.6791754,Outer Regional,22,TRUE
1175D2290,Hawkesbury,Nepean Blue Mountains,"Day St & Macquarie St, Windsor NSW 2756, Australia",Windsor,2756,-33.6099299,150.8178299,Major Cities,96.8,TRUE
1184R2070,Hay,Murrumbidgee,"351 Murray St, Hay NSW 2711, Australia",Hay,2711,-34.5003331,144.8518526,Outer Regional,28,TRUE
1184M2090,Henty (MPS),Murrumbidgee,"Hosp and Health Services, 7 Keighran St, Henty NSW 2658, Australia",Henty,2658,-35.515688,147.0315229,Inner Regional,15,TRUE
1184R2080,Hillston (MPS),Murrumbidgee,"48C Burns St, Hillston NSW 2675, Australia",Hillston,2675,-33.4789295,145.5388518,Remote,5,TRUE
1184M2100,Holbrook (MPS),Murrumbidgee,"Holbrook District Hospital, 1 Bowler St, Holbrook NSW 2644, Australia",Holbrook,2644,-35.7214125,147.3068033,Inner Regional,24.6,TRUE
1176B2100,Hornsby and Ku-Ring-Gai,Northern Sydney,"36 Palmerston Rd, Hornsby NSW 2077, Australia",Hornsby,2077,-33.702112,151.1114149,Major Cities,273.3,TRUE
1480Q1020,Hunter New England Mater Mental Health S,Hunter New England,"72 Watt St, Newcastle NSW 2300, Australia",Newcastle,2300,-32.9313014,151.7818644,Major Cities,119.5,TRUE
1173P2170,Illawarra Mental Health Services,Illawarra Shoalhaven,"15-17 Madigan Blvd, Mount Warrigal NSW 2528, Australia",Shellharbour Square,2529,-34.5590196,150.8413165,Major Cities,0,TRUE
1180J2080,Inverell,Hunter New England,"41 Swanbrook Rd, Inverell NSW 2360, Australia",Inverell,2360,-29.7706031,151.129266,Outer Regional,43.6,TRUE
1186S2020,Ivanhoe,Far West,"1 Columbus St, Ivanhoe NSW 2878, Australia",Ivanhoe,2878,-32.9076925,144.3067185,Very remote,0,TRUE
1184M2110,Jerilderie (MPS),Murrumbidgee,"33 Southey St, Jerilderie NSW 2716, Australia",Jerilderie,2716,-35.3569425,145.719071,Outer Regional,15,TRUE
1180Q2300,John Hunter,Hunter New England,"83 Lookout Rd, New Lambton Heights NSW 2305, Australia",New Lambton Heights,2305,-32.928842,151.6944996,Major Cities,820.7,TRUE
1184R2090,Junee (MPS),Murrumbidgee,"67 Broadway St, Junee NSW 2663, Australia",Junee,2663,-34.8649396,147.5792261,Inner Regional,37,TRUE
1117C1010,Justice Health,Justice Health & Forensic Mental Health,"Anzac Parade, Malabar NSW 2036, Australia",Malabar,2036,-33.9514223,151.2469614,Major Cities,345.9,TRUE
1171C2030,Karitane Mothercraft Society,South Western Sydney,"53 Mitchell St, Carramar NSW 2163, Australia",Carramar,2163,-33.8805854,150.966063,Major Cities,18.6,TRUE
1483N1010,Kenmore,Southern NSW,"Taralga Rd, Goulburn NSW 2580, Australia",Goulburn,2580,-34.6952006,149.76843,Inner Regional,28.9,TRUE
1173P2040,Kiama,Illawarra Shoalhaven,"1 Bonaira St, Kiama NSW 2533, Australia",Kiama,2533,-34.6818323,150.8497043,Inner Regional,17.9,TRUE
1180Q2050,Kurri Kurri,Hunter New England,"432 Lang St, Kurri Kurri NSW 2327, Australia",Kurri Kurri,2327,-32.8239811,151.4629598,Major Cities,50.9,TRUE
1181H2130,Kyogle (MPS),Northern NSW,"199 Summerland Way, Kyogle NSW 2474, Australia",Kyogle,2474,-28.6256681,153.0021968,Inner Regional,40,TRUE
1184L2120,Lake Cargelligo (MPS),Murrumbidgee,"1 Uabba St, Lake Cargelligo NSW 2672, Australia",Lake Cargelligo,2672,-33.2912807,146.3768447,Remote,21.9,TRUE
1184R2110,Leeton,Murrumbidgee,"1 Wade Ave, Leeton NSW 2705, Australia",Leeton,2705,-34.5537052,146.4040844,Outer Regional,63,TRUE
1185K2310,Lightning Ridge (MPS),Western NSW,"25 Pandora St, Lightning Ridge NSW 2834, Australia",Lightning Ridge,2834,-29.4299091,147.982061,Remote,24,TRUE
1181H2140,Lismore,Northern NSW,"60 Uralba St, Lismore NSW 2480, Australia",Lismore,2480,-28.8088899,153.2914977,Inner Regional,251.5,TRUE
1175L2130,Lithgow,Nepean Blue Mountains,"2 Col Drewe Dr, Bowenfels NSW 2790, Australia",Lithgow,2790,-33.4980891,150.1285897,Inner Regional,89.5,TRUE
1171D2090,Liverpool,South Western Sydney,"LOT 2 Elizabeth St Liverpool NSW 2170, LOT 2 Elizabeth St, Liverpool NSW 2170, Australia",Liverpool,2170,-33.9202646,150.9302546,Major Cities,791.1,TRUE
1184R2130,Lockhart (MPS),Murrumbidgee,"53 Hebden St, Lockhart NSW 2656, Australia",Lockhart,2656,-35.2223343,146.7190682,Outer Regional,5.1,TRUE
1177B2040,Long Jetty,Central Coast,"Wyong Rd, Long Jetty NSW 2261, Australia",Long Jetty,2261,-33.3686329,151.4754457,Major Cities,20.3,TRUE
1185K7510,Lourdes Dubbo,Western NSW,"110 Cobbora Rd, Dubbo NSW 2830, Australia",Dubbo,2830,-32.2385112,148.6273614,Inner Regional,28.8,TRUE
1182H2160,Macksville,Mid North Coast,"14 Boundary St, Macksville NSW 2447, Australia",Macksville,2447,-30.7137914,152.9206148,Outer Regional,44.2,TRUE
1181H2170,Maclean,Northern NSW,"21 Union St, MacLean NSW 2463, Australia",Maclean,2463,-29.4544152,153.20134,Inner Regional,39.2,TRUE
1182H2120,Macleay Valley - Kempsey,Mid North Coast,"Kempsey District Hospital, 119 River St, West Kempsey NSW 2440, Australia",Kempsey,2440,-31.067752,152.8208083,Inner Regional,74.2,TRUE
1476B1010,Macquarie,Northern Sydney,"1 Wicks Rd, North Ryde NSW 2113, Australia",North Ryde,2113,-33.8017538,151.1225364,Major Cities,193.8,TRUE
1180Q2060,Maitland,Hunter New England,"Nurses Home Maitland Hosp, 550 High St, Maitland NSW 2320, Australia",Maitland,2320,-32.7266827,151.5461339,Major Cities,174.9,TRUE
1180J2110,Manilla (MPS),Hunter New England,"143 Court St, Manilla NSW 2346, Australia",Manilla,2346,-30.7465445,150.7317127,Outer Regional,52,TRUE
1176B2120,Manly,Northern Sydney,"Manly District Hospital, 150 Darley Rd, Manly NSW 2095, Australia",Manly,2095,-33.806372,151.2942333,Major Cities,138.2,TRUE
1180J2250,Manning,Hunter New England,"26 York St, Taree NSW 2430, Australia",Taree,2430,-31.910425,152.4551477,Inner Regional,185.5,TRUE
1186K1010,Menindee Health Service,Far West,"Perry St, Menindee NSW 2879, Australia",Menindee,2879,-32.3879751,142.4214064,Very remote,0,TRUE
1184M2120,Mercy Care Centre Albury,Murrumbidgee,"550 Poole St, Albury NSW 2640, Australia",Albury,2640,-36.069229,146.9166478,Inner Regional,30,TRUE
1184N2100,Mercy Care Centre Young,Murrumbidgee,"69 Demondrille St, Young NSW 2594, Australia",Young,2594,-34.3205766,148.2884702,Inner Regional,26,TRUE
1180Q2080,Merriwa (MPS),Hunter New England,"1 MacKenzie St, Merriwa NSW 2329, Australia",Merriwa,2329,-32.1422564,150.3599344,Outer Regional,22.8,TRUE
1173P2050,Milton and Ulladulla,Illawarra Shoalhaven,"104 Princes Hwy, Milton NSW 2538, Australia",Milton,2538,-35.3172545,150.4389526,Inner Regional,25.8,TRUE
1185L2140,Molong,Western NSW,"130 King St, Molong NSW 2866, Australia",Molong,2866,-33.0877831,148.8598906,Inner Regional,10.5,TRUE
1176B2140,Mona Vale,Northern Sydney,"Mona Vale Hospital, 18 Coronation St, Mona Vale NSW 2103, Australia",Mona Vale,2103,-33.6849444,151.3071911,Major Cities,167.6,TRUE
1180J2120,Moree,Hunter New England,"35 Alice St, Moree NSW 2400, Australia",Moree,2400,-29.4704333,149.8391488,Outer Regional,37.6,TRUE
1480Q1010,Morisset,Hunter New England,"143 Dora St, Morisset NSW 2264, Australia",Morisset,2264,-33.1118228,151.4799428,Major Cities,128.6,TRUE
1183N2110,Moruya,Southern NSW,"2 River St, Moruya NSW 2537, Australia",Moruya,2537,-35.9041303,150.0704021,Inner Regional,54.8,TRUE
1174D2180,Mount Druitt,Western Sydney,"75 Railway St, Mount Druitt NSW 2770, Australia",Mount Druitt,2770,-33.7656649,150.8302401,Major Cities,130.9,TRUE
1185K2160,Mudgee,Western NSW,"139 Church St, Mudgee NSW 2850, Australia",Mudgee,2850,-32.6023848,149.5870965,Inner Regional,29.5,TRUE
1181H2200,Mullumbimby,Northern NSW,"1 Azalea St, Mullumbimby NSW 2482, Australia",Mullumbimby,2482,-28.558816,153.4905693,Inner Regional,0,TRUE
1184N2130,Murrumburrah - Harden (MPS),Murrumbidgee,"54 Swift St, Harden NSW 2587, Australia",Harden,2587,-34.5557326,148.3603435,Inner Regional,33,TRUE
1180Q2190,Murrurundi,Hunter New England,"Wilson Memorial Hospital, 59 O'Connell St, Murrurundi NSW 2338, Australia",Murrurundi,2338,-31.7703192,150.8346993,Outer Regional,18,TRUE
1181H2210,Murwillumbah,Northern NSW,"8 Ewing St, Murwillumbah NSW 2484, Australia",Murwillumbah,2484,-28.3236399,153.4003893,Inner Regional,62.9,TRUE
1180Q2090,Muswellbrook,Hunter New England,"District Hospital, 36 Brentwood St, Muswellbrook NSW 2333, Australia",Muswellbrook,2333,-32.2637434,150.8994306,Inner Regional,54.3,TRUE
1180J2130,Narrabri,Hunter New England,"Hospital Staff Quarters, 11 Cameron St, Narrabri NSW 2390, Australia",Narrabri,2390,-30.3257462,149.7768136,Outer Regional,30,TRUE
1184R2150,Narrandera,Murrumbidgee,"56 Adams St, Narrandera NSW 2700, Australia",Narrandera,2700,-34.7429212,146.5476021,Outer Regional,20.1,TRUE
1185K2170,Narromine,Western NSW,"128 Cathundril St, Narromine NSW 2821, Australia",Narromine,2821,-32.2429947,148.2393902,Outer Regional,24.8,TRUE
1175D2100,Nepean,Nepean Blue Mountains,"256 Derby St, Penrith NSW 2750, Australia",Kingswood,2747,-33.7555049,150.6939004,Major Cities,591.2,TRUE
1176B2090,Neringah,Northern Sydney,"4 Neringah Ave S, Wahroonga NSW 2076, Australia",Wahroonga South,2076,-33.7176426,151.1145893,Major Cities,15,TRUE
1181H2150,Nimbin (MPS),Northern NSW,"87 Cullen St, Nimbin NSW 2480, Australia",Nimbin,2480,-28.594527,153.2229455,Inner Regional,13.6,TRUE
1185K2180,Nyngan (MPS),Western NSW,"15 Hoskins St, Nyngan NSW 2825, Australia",Nyngan,2825,-31.5614095,147.2025872,Remote,42,TRUE
1185L2150,Oberon (MPS),Western NSW,"67 North St, Oberon NSW 2787, Australia",Oberon,2787,-33.7053936,149.8530251,Inner Regional,18,TRUE
1185L2160,Orange Health Service,Western NSW,"Bloomfield Hospital, 1502 Forest Rd, Orange NSW 2800, Australia",Orange,2800,-33.3143532,149.0949396,Inner Regional,318.4,TRUE
1183N2140,Pambula,Southern NSW,"1 Merimbola St, Pambula NSW 2549, Australia",Pambula,2549,-36.9277801,149.8779234,Outer Regional,29.8,TRUE
1185L2170,Parkes,Western NSW,"18 Coleman St, Parkes NSW 2870, Australia",Parkes,2870,-33.1273249,148.1702302,Outer Regional,29.6,TRUE
1185L2180,Peak Hill,Western NSW,"111 Newell Hwy, Peak Hill NSW 2869, Australia",Peak Hill,2869,-32.7357036,148.1995797,Outer Regional,4,TRUE
1173P2060,Port Kembla,Illawarra Shoalhaven,"Port Kembla District Hosp, 89 Cowper St, Warrawong NSW 2502, Australia",Warrawong,2502,-34.4863555,150.8811969,Major Cities,57.3,TRUE
1182H2720,Port Macquarie,Mid North Coast,"1 Wrights Rd, Port Macquarie NSW 2444, Australia",Port Macquarie,2444,-31.4520741,152.8788326,Inner Regional,200.3,TRUE
1175L2200,Portland,Nepean Blue Mountains,"Tabulam Cottages, 20 Green St, Portland NSW 2847, Australia",Portland,2847,-33.3579881,149.9788021,Inner Regional,26,TRUE
1180J2140,Prince Albert Tenterfield,Hunter New England,"Pam Hospital, 1 Naas St, Tenterfield NSW 2372, Australia",Tenterfield,2372,-29.0451025,152.0136705,Outer Regional,18,TRUE
1172C2080,Prince of Wales,South Eastern Sydney,"147 Barker St, Randwick NSW 2031, Australia",Randwick,2031,-33.9215988,151.2425284,Major Cities,493.6,TRUE
1183N2150,Queanbeyan,Southern NSW,"Smith Family Homes, 16 Erin St, Queanbeyan NSW 2620, Australia",Queanbeyan,2620,-35.3459945,149.2330649,Major Cities,56.7,TRUE
1180J2150,Quirindi,Hunter New England,"42 Nowland St, Quirindi NSW 2343, Australia",Quirindi,2343,-31.5003207,150.6771816,Outer Regional,20,TRUE
1170A2390,RPAH Institute of Rheumatology & Orthopa,Sydney,"57 Missenden Rd, Camperdown NSW 2050, Australia",Camperdown,2050,-33.8883819,151.1804445,Major Cities,24.5,TRUE
1181H2670,Riverlands Drug and Alcohol Centre,Northern NSW,"Uralba St, Lismore NSW 2480, Australia",Lismore,2480,-28.8079636,153.2960314,Inner Regional,14,TRUE
1172C2200,Royal For Women,South Eastern Sydney,"Barker St, St Pauls NSW 2031, Australia",Randwick,2031,-33.9193748,151.2432261,Major Cities,121,TRUE
1176B2180,Royal North Shore,Northern Sydney,"1 Reserve Rd, St Leonards NSW 2065, Australia",St Leonards,2065,-33.8183939,151.1893215,Major Cities,721.3,TRUE
1170A2080,Royal Prince Alfred,Sydney,"50 Missenden Rd, Camperdown NSW 2050, Australia",Camperdown,2050,-33.8883404,151.1839551,Major Cities,762.3,TRUE
1176B2210,Royal Rehabilitation,Northern Sydney,"227 Morrison Rd, Ryde NSW 2112, Australia",Ryde,2112,-33.8225054,151.1081826,Major Cities,48,TRUE
1176B2240,Ryde,Northern Sydney,"1 Denistone Rd, Denistone NSW 2114, Australia",Eastwood,2122,-33.7951373,151.0888088,Major Cities,160.2,TRUE
1185L2210,Rylstone (MPS),Western NSW,"24 Fitzgerald St, Rylstone NSW 2849, Australia",Rylstone,2849,-32.804471,149.9755645,Outer Regional,26,TRUE
1180Q2160,Scott Memorial Scone,Hunter New England,"24 Stafford St, Scone NSW 2337, Australia",Scone,2337,-32.0522863,150.8768836,Inner Regional,39.7,TRUE
1173P2110,Shellharbour,Illawarra Shoalhaven,"15 Madigan Blvd, Mount Warrigal NSW 2528, Australia",Mount Warrigal,2528,-34.5579988,150.842478,Major Cities,179.8,TRUE
1173P2070,Shoalhaven Memorial,Illawarra Shoalhaven,"2 Shoalhaven St, Nowra NSW 2541, Australia",Nowra,2541,-34.8676786,150.5970455,Inner Regional,178.3,TRUE
1180Q2170,Singleton,Hunter New England,"20 Dangar Rd, Singleton NSW 2330, Australia",Singleton,2330,-32.5656088,151.1836576,Inner Regional,45.2,TRUE
1175D2140,Springwood,Nepean Blue Mountains,"Springwood Hospital, 7 Huntley Grange Rd, Springwood NSW 2777, Australia",Springwood,2777,-33.6904772,150.5708599,Major Cities,30.6,TRUE
1172C2130,St George,South Eastern Sydney,"28 Gray St, Kogarah NSW 2217, Australia",Kogarah,2217,-33.9677996,151.1332174,Major Cities,610.6,TRUE
1169D2130,St Joseph's Auburn,St Vincent's Health Network,"19A Alice St, Auburn NSW 2144, Australia",Auburn,2144,-33.8495045,151.0287893,Major Cities,71.7,TRUE
1169A2120,St Vincent's Darlinghurst,St Vincent's Health Network,"390 Victoria St, Darlinghurst NSW 2010, Australia",Darlinghurst,2010,-33.879554,151.221635,Major Cities,423.1,TRUE
1172C2140,Sutherland,South Eastern Sydney,"430 Kingsway, Caringbah NSW 2229, Australia",Caringbah,2229,-34.0374774,151.1147835,Major Cities,314.4,TRUE
1163C2380,Sydney Children's,Sydney Children's Hospitals Network,"1 High St, Randwick NSW 2031, Australia",Randwick,2031,-33.9151727,151.2280113,Major Cities,145.8,TRUE
1172C1530,Sydney Dental,South Eastern Sydney,"2 Chalmers St, Surry Hills NSW 2010, Australia",Surry Hills,2010,-33.884204,151.2079405,Major Cities,0,TRUE
1172A2330,Sydney/ Sydney Eye,South Eastern Sydney,"8 Macquarie St, Sydney NSW 2000, Australia",Sydney,2000,-33.8677072,151.2133482,Major Cities,60.9,TRUE
1180J2160,Tamworth,Hunter New England,"Tamworth Base Hospital, 31 Dean St, North Tamworth NSW 2340, Australia",North Tamworth,2340,-31.0752331,150.9273447,Inner Regional,279.2,TRUE
1184R2160,Temora,Murrumbidgee,"119 Gloucester St, Temora NSW 2666, Australia",Temora,2666,-34.4430053,147.5427825,Outer Regional,27.8,TRUE
1181H2230,The Tweed Hospital,Northern NSW,"14 Powell St, Tweed Heads NSW 2485, Australia",Tweed Heads,2485,-28.1771025,153.5456257,Major Cities,242,TRUE
1470A2360,Thomas Walker,Sydney,"Hospital Rd, Concord NSW 2139, Australia",Concord Repatriation Hospital,2139,-33.8374144,151.0927445,Major Cities,16.4,TRUE
1186S2030,Tibooburra,Far West,"1 Sturt St, Tibooburra NSW 2880, Australia",Tibooburra,2880,-29.435521,142.0114802,Very remote,0,TRUE
1180J2170,Tingha (MPS),Hunter New England,"161 Jones Rd, Tingha NSW 2369, Australia",Tingha,2369,-29.9870957,151.3005754,Outer Regional,9,TRUE
1184M2140,Tocumwal,Murrumbidgee,"1 Calaway St, Tocumwal NSW 2714, Australia",Tocumwal,2714,-35.815215,145.575708,Inner Regional,5.4,TRUE
1180Q2250,Tomaree Community,Hunter New England,"2 Trevally St, Nelson Bay NSW 2315, Australia",Nelson Bay,2315,-32.7202033,152.1590073,Inner Regional,10.8,TRUE
1185L2230,Tottenham (MPS),Western NSW,"10 Moodana St, Tottenham NSW 2873, Australia",Tottenham,2873,-32.2420096,147.3491343,Remote,10,TRUE
1185K2190,Trangie (MPS),Western NSW,"28 Harris St, Trangie NSW 2823, Australia",Trangie,2823,-32.0306163,147.976498,Outer Regional,19.9,TRUE
1170A2340,Tresillian Care Centres,Sydney,"571 Canterbury Rd, Campsie NSW 2194, Australia",Campsie,2194,-33.9198302,151.099866,Major Cities,70.6,TRUE
1185L2190,Trundle (MPS),Western NSW,"44 Brookview St, Trundle NSW 2875, Australia",Trundle,2875,-32.9210278,147.7046517,Outer Regional,11,TRUE
1185L2240,Tullamore (MPS),Western NSW,"1 Hinkler St, Tullamore NSW 2874, Australia",Tullamore,2874,-32.634702,147.5688284,Outer Regional,15.9,TRUE
1184M2150,Tumbarumba (MPS),Murrumbidgee,"4 Mitchell St, Tumbarumba NSW 2653, Australia",Tumbarumba,2653,-35.7787771,148.0057212,Outer Regional,42.7,TRUE
1184R2180,Tumut,Murrumbidgee,"105 Simpson St, Tumut NSW 2720, Australia",Tumut,2720,-35.3062248,148.2195491,Inner Regional,28.6,TRUE
1184M2130,Urana (MPS),Murrumbidgee,"127 Princess St, Urana NSW 2645, Australia",Urana,2645,-35.3253904,146.2676983,Outer Regional,22,TRUE
1181H2240,Urbenville (MPS),Northern NSW,"Multi Purpose Services, 45 Beaury St, Urbenville NSW 2475, Australia",Urbenville,2475,-28.4715553,152.5432704,Outer Regional,22,TRUE
1180J2180,Vegetable Creek (MPS),Hunter New England,"13 Glen Innes Rd, Emmaville NSW 2371, Australia",Emmaville,2371,-29.4501191,151.598799,Outer Regional,17,TRUE
1184R2190,Wagga Wagga,Murrumbidgee,"260 Edward St, Wagga Wagga NSW 2650, Australia",Wagga Wagga,2650,-35.1179993,147.3569596,Inner Regional,298.2,TRUE
1180J2190,Walcha (MPS),Hunter New England,"7 South St, Walcha NSW 2354, Australia",Walcha,2354,-30.9839412,151.5904809,Outer Regional,24,TRUE
1185K2200,Walgett (MPS),Western NSW,"District Hospital, 141 Fox St, Walgett NSW 2832, Australia",Walgett,2832,-30.0307001,148.1160719,Remote,14.8,TRUE
1180J2200,Warialda (MPS),Hunter New England,"146 Long St, Warialda NSW 2402, Australia",Warialda,2402,-29.5384276,150.5795995,Outer Regional,25,TRUE
1185K2210,Warren (MPS),Western NSW,"Dr Kater Dr, Ravenswood NSW 2824, Australia",Warren,2824,-31.6937861,147.8392321,Outer Regional,39.5,TRUE
1182H2250,Wauchope,Mid North Coast,"69 High St, Wauchope NSW 2446, Australia",Wauchope,2446,-31.4572396,152.728526,Inner Regional,27.9,TRUE
1172C2060,Waverley War Memorial,South Eastern Sydney,"Elizabeth Hunter Lodge, 125 Birrell St, Waverley NSW 2024, Australia",Waverley,2024,-33.8965405,151.2531325,Major Cities,35,TRUE
1180J2210,Wee Waa,Hunter New England,"Wee Waa Hospital, 60 Alma St, Wee Waa NSW 2388, Australia",Wee Waa,2388,-30.2254579,149.4484348,Outer Regional,14.8,TRUE
1185K2220,Wellington,Western NSW,"30 Thornton St, Wellington NSW 2820, Australia",Wellington,2820,-32.5498437,148.9522605,Outer Regional,17,TRUE
1186M2160,Wentworth,Far West,"1 Silver City Hwy, Dareton NSW 2717, Australia",Wentworth,2648,-34.0957456,142.0405396,Outer Regional,15.7,TRUE
1175D2320,Wentworth Psychiatric Services,Nepean Blue Mountains,"Parker St, South Penrith NSW 2750, Australia",Penrith,2750,-33.769139,150.7106478,Major Cities,11,TRUE
1180J2220,Werris Creek (MPS),Hunter New England,"22 North St, Werris Creek NSW 2341, Australia",Werris Creek,2341,-31.3464856,150.6525186,Inner Regional,15.8,TRUE
1174D2240,Westmead,Western Sydney,"166 Darcy Rd, Wentworthville NSW 2145, Australia",Westmead,2145,-33.8009483,150.9630458,Major Cities,835.9,TRUE
1186S2510,White Cliffs MPS,Far West,"Johnston St, White Cliffs NSW 2836, Australia",White Cliffs,2836,-30.8479293,143.0909106,Very remote,0,TRUE
1186S2040,Wilcannia (MPS),Far West,"14 Ross St, Wilcannia NSW 2836, Australia",Wilcannia,2836,-31.5563951,143.3853221,Very remote,8,TRUE
1180J2260,Wingham,Hunter New England,"32 Bungay Rd, Wingham NSW 2429, Australia",Wingham,2429,-31.8771793,152.3662084,Inner Regional,32,TRUE
1173P2080,Wollongong,Illawarra Shoalhaven,"348 Crown St, Wollongong NSW 2500, Australia",Wollongong,2500,-34.4247486,150.8835055,Major Cities,486.3,TRUE
1177B2030,Woy Woy,Central Coast,"7 Kathleen St, Woy Woy NSW 2256, Australia",Woy Woy,2256,-33.4964345,151.3220325,Major Cities,52.8,TRUE
1184L2260,Wyalong,Murrumbidgee,"Wyalong Hospital, 70 Ungarie Rd, West Wyalong NSW 2671, Australia",West Wyalong,2671,-33.9164883,147.196857,Outer Regional,22,TRUE
1177B2060,Wyong,Central Coast,"Pacific Hwy, Kanwal NSW 2259, Australia",Kanwal,2259,-33.2491694,151.4920428,Major Cities,331.9,TRUE
1183N2170,Yass,Southern NSW,"Yass District Hospital, 145 Meehan St, Yass NSW 2582, Australia",Yass,2582,-34.8438576,148.9070456,Inner Regional,10,TRUE
1184N2180,Young,Murrumbidgee,"Young District Hospital, 68 Allanan St, Young NSW 2594, Australia",Young,2594,-34.3205758,148.2884644,Inner Regional,27.6,TRUE
1772,Adori Day Clinic,,"22 Mary Street, Auburn NSW 2144, Australia",Auburn,2144,-33.8518996,151.0303007,,0,FALSE
1956,Aesthetic Day Surgery,,"14 Kensington Street, Kogarah NSW 2217, Australia",Kogarah,2217,-33.9652025,151.1348774,,0,FALSE
1310,Albury Day Surgery/Albury Wodonga Endoscopy Clinic,,"4 Baker Street, Albury NSW 2640, Australia",Albury,2640,-36.0734604,146.8839255,,0,FALSE
1905,Albury Wodonga Private Hospital,,"1125 Pemberton Street, Albury NSW 2640, Australia",Albury,2640,-36.075512,146.883373,,0,FALSE
1710,Allowah Presbyterian Children's Hospital,,"8 Perry Street, Dundas NSW 2117, Australia",Dundas,2117,-33.7915998,151.0643441,,0,FALSE
1705,Alwyn Rehabilitation Hospital,,"1 Emu Street, Strathfield NSW 2135, Australia",Strathfield,2135,-33.8828456,151.0943522,,0,FALSE
1735,Armidale Private Hospital,,"Rusden Street, Armidale NSW 2350, Australia",Armidale,2350,-30.5086052,151.6735304,,0,FALSE
1893,Avondale Adventist Aged Care Facility,,"10 Central Road, Cooranbong NSW 2265, Australia",Cooranbong,2265,-33.0781348,151.4528094,,0,FALSE
1836,Ballina Day Surgery,,"46 Tamar Street, Ballina NSW 2478, Australia",Ballina,2478,-28.8705024,153.5634366,,0,FALSE
1855,Bankstown Primary Health Care Day Surgery,,"Grd Floor, 67 Rickard Road, Bankstown NSW 2200, Australia",Bankstown,2200,-33.9140673,151.0355121,,0,FALSE
1597,Baringa Private Hospital,,"Mackays Road, Coffs Harbour NSW 2450, Australia",Coffs Harbour,2450,-30.272964,153.1104381,,0,FALSE
1949,Bathurst Private Hospital,,"Gorman's Hill Road, Bathurst NSW 2795, Australia",Bathurst,2795,-33.4295865,149.5905391,,0,FALSE
1806,Bega Valley Private Hospital,,"31 Parker Street, Bega NSW 2550, Australia",Bega,2550,-36.6736585,149.8455717,,0,FALSE
1241,Berkeley Vale Private Hospital,,"Lorraine Avenue, Berkeley Vale NSW 2261, Australia",Berkeley Vale,2261,-33.3368795,151.435522,,0,FALSE
1962,Bond House,,"Judd Avenue, Hammondville NSW 2170, Australia",Hammondville,2170,-33.9488113,150.9601898,,0,FALSE
1701,Bondi Junction Private Hospital,,"1st Floor, 21 Spring Street, Bondi Junction NSW 2022, Australia",Bondi Junction,2022,-33.8922062,151.2457835,,0,FALSE
1904,Brisbane Waters Private Hospital,,"21 Vidler Avenue, Woy Woy NSW 2256, Australia",Woy Woy,2256,-33.4955539,151.3214767,,0,FALSE
1748,Bryant Radiology - Healthcare Imaging,,"Level 2, St George Private Hospital, 1 South Street, Kogarah NSW 2217, Australia",Kogarah,2217,-33.9664269,151.1361908,,0,FALSE
1275,Burwood Endoscopy Centre,,"282 Burwood Road, Burwood NSW 2134, Australia",Burwood,2134,-33.8814912,151.103391,,0,FALSE
1879,Calvary Day Procedure Centre,,"329 Edward Street, Wagga Wagga NSW 2650, Australia",Wagga Wagga,2650,-35.115946,147.3524341,,0,FALSE
1812,Calvary Hospital,,"Hardy Avenue, Wagga Wagga NSW 2650, Australia",Wagga Wagga,2650,-35.1179186,147.3560063,,0,FALSE
1783,Campbelltown Private Hospital,,"42 Parkside Crescent, Campbelltown NSW 2560, Australia",Campbelltown,2560,-34.075151,150.8052244,,0,FALSE
1968,Campsie Day Surgery,,"56 Campsie Street, Campsie NSW 2194, Australia",Campsie,2194,-33.9109758,151.0989388,,0,FALSE
1965,Canada Bay Private Hospital,,"55-57 Concord Road, Concord NSW 2137, Australia",Concord,2137,-33.865285,151.0940709,,0,FALSE
1892,Castlecrag Private Hospital,,"150 Edinburgh Road, Castlecrag NSW 2068, Australia",Castlecrag,2068,-33.801822,151.2170458,,0,FALSE
1947,Central Coast Day Hospital,,"Suite-1, 2 Ilya Avenue, Erina NSW 2250, Australia",Erina,2250,-33.439016,151.384215,,0,FALSE
1401,Central Coast Endoscopy Centre,,"Cnr Pemell & Akora Road, Wyoming NSW 2250, Australia",Wyoming,2250,-33.4087081,151.3486259,,0,FALSE
1872,Centre for Digestive Diseases,,"Level 1, 229 Great North Road, Five Dock NSW 2046, Australia",Five Dock,2046,-33.865103,151.1299809,,0,FALSE
1995,Chatswood Private Hospital,,"38 Albert Avenue, Chatswood NSW 2067, Australia",Chatswood,2067,-33.7975744,151.1857393,,0,FALSE
1959,Charlestown Private Hospital,,"250 Pacific Highway, Charlestown NSW 2290, Australia",Charlestown,2290,-32.9599872,151.6978861,,0,FALSE
1978,Chris O'Brien Lifehouse,,"119-143 Missenden Road, Camperdown NSW 2050, Australia",Camperdown,2050,-33.8906561,151.1820414,,0,FALSE
1750,City East Specialist Day Hospital,,"225 Maroubra Road, Maroubra NSW 2035, Australia",Maroubra,2035,-33.942178,151.2407317,,0,FALSE
1679,City West Day Surgery,,"30 Mons Road, Westmead NSW 2145, Australia",Westmead,2145,-33.8013879,150.9822042,,0,FALSE
1440,Coffs Harbour Day Surgical Centre,,"69 Albany Street, Coffs Harbour NSW 2450, Australia",Coffs Harbour,2450,-30.3001742,153.1160969,,0,FALSE
1827,Coffs Harbour Radiology,,"140 West High Street, Coffs Harbour NSW 2450, Australia",Coffs Harbour,2450,-30.2960036,153.1124196,,0,FALSE
1899,Coolenberg Day Surgery,,"60 Lake Road, Port Macquarie NSW 2444, Australia",Port Macquarie,2444,-31.4396316,152.9097186,,0,FALSE
1781,Crows Nest Cosmetic and Vein Clinic,,"Level 1, 10-12 Clarke Street, Crows Nest NSW 2065, Australia",Crows Nest,2065,-33.825927,151.1999314,,0,FALSE
1906,Crows Nest Day Surgery,,"Level-1,22 Clarke Street, Crows Nest NSW 2065, Australia",Crows Nest,2065,-33.8251967,151.1992705,,0,FALSE
1952,Dalcross Adventist Hospital,,"28 Stanhope Street, Killara NSW 2071, Australia",Killara,2071,-33.7676614,151.1645906,,0,FALSE
2002,Dee Why Endoscopy Unit,,"Level 4, Suite 4402, 834 Pittwater Road, Dee Why NSW 2099, Australia",Dee Why,2099,-33.7551167,151.2844214,,0,FALSE
1643,Delmar Private Hospital,,"58 Quirk Street, Dee Why NSW 2099, Australia",Dee Why,2099,-33.7579845,151.2881098,,0,FALSE
1204,Diagnostic Endoscopy Centre,,"St Vincents Clinic, 438 Victoria Street, Darlinghurst NSW 2010, Australia",Darlinghurst,2010,-33.8811589,151.219344,,0,FALSE
1998,Double Bay Day Hospital,,"Level 2, 415 New South Head Road, Double Bay NSW 2028, Australia",Double Bay,2028,-33.8779272,151.2434262,,0,FALSE
1794,Double Bay Day Surgery,,"20 Manning Road, Double Bay NSW 2028, Australia",Double Bay,2028,-33.879344,151.2434424,,0,FALSE
1964,Drummoyne Day Surgery,,"Level-3, 135 Victoria Road, Drummoyne NSW 2047, Australia",Drummoyne,2047,-33.8529844,151.1563337,,0,FALSE
1803,Dubbo Private Hospital,,"Moran Drive, Dubbo NSW 2830, Australia",Dubbo,2830,-32.2355465,148.6218945,,0,FALSE
1674,Dudley Private Hospital,,"261 March Street, Orange NSW 2800, Australia",Orange,2800,-33.2814469,149.1214164,,0,FALSE
1982,East Sydney Private Hospital,,"Level4, 75 Crown Street, East Sydney NSW 2010, Australia",East Sydney,2010,-33.873698,151.2159635,,0,FALSE
1567,Eastern Heart Clinic,,"Level 3, Campus Centre, Barker Street, Randwick NSW 2031, Australia",Randwick,2031,-33.9190478,151.2386659,,0,FALSE
1846,Eastern Suburbs Endoscopy Clinic,,"Suite 1903, Westfield Tower 1, 520 Oxford Street, Bondi Junction NSW 2022, Australia",Bondi Junction,2022,-33.891423,151.251106,,0,FALSE
1649,Eastern Suburbs Private Hospital,,"8 Chapel Street, Randwick NSW 2031, Australia",Randwick,2031,-33.9103758,151.2458487,,0,FALSE
1796,Epping Surgery Centre,,"Suite 3, 44-46 Oxford Street, Epping NSW 2121, Australia",Epping,2121,-33.7711316,151.0836763,,0,FALSE
1721,Excel Endoscopy Centre,,"490 Canterbury Road, Campsie NSW 2194, Australia",Campsie,2194,-33.9197922,151.1014266,,0,FALSE
1218,Ferguson Lodge Residential Care Centre,,"Joseph Street, Lidcombe NSW 2141, Australia",Lidcombe,2141,-33.8633697,151.0442244,,0,FALSE
1833,Figtree Private Hospital,,"1 Suttor Place, Figtree NSW 2525, Australia",Figtree,2525,-34.4395735,150.8510562,,0,FALSE
1864,Forster Private Hospital,,"29-41 South Street, Forster NSW 2428, Australia",Forster,2428,-32.189584,152.5205635,,0,FALSE
1662,Francis Street Ophthalmic Day Procedure Centre,,"112 Francis Street, Richmond NSW 2753, Australia",Richmond,2753,-33.5952,150.7510557,,0,FALSE
1785,Genea Liverpool,,"173-175 Bigge Street, Liverpool NSW 2170, Australia",Liverpool,2170,-33.9218796,150.9268302,,0,FALSE
1731,Genea Newcastle,,"Lingard Private Hospital, 10 Lingard Street, Merewether NSW 2291, Australia",Merewether,2291,-32.9405315,151.7556541,,0,FALSE
1943,Genea North West,,"Suite 101, 10 Norbrik Drive, Bella Vista NSW 2153, Australia",Bella Vista,2153,-33.7434365,150.9530993,,0,FALSE
1767,Genea Sydney,,"321 Kent Street, Sydney NSW 2000, Australia",Sydney,2000,-33.8675124,151.2038853,,0,FALSE
1980,Genesis Cancer Care,,"36 Pcific Highway, Gateshead NSW 2290, Australia",Gateshead,2290,-32.9806429,151.6922394,,0,FALSE
1987,Genesis Cancer Care,,"Level B2, 31 Dora Streey, Hurstville NSW 2220, Australia",Hurstville,2220,-33.9644033,151.1005009,,0,FALSE
1988,Genesis Cancer Care,,"Suite1, L B2, 3 Technology Pl, Macquarie University NSW 2019, Australia",Macquarie University,2019,-33.7734071,151.1179303,,0,FALSE
1758,Gosford Private Hospital,,"Burrabil Avenue, North Gosford NSW 2250, Australia",North Gosford,2250,-33.4178847,151.3509717,,0,FALSE
1793,Hamilton Day Surgery Centre,,"76 Jenner Parade, Hamilton South NSW 2303, Australia",Hamilton South,2303,-32.9322439,151.7534804,,0,FALSE
1656,Harley Place Day Surgery,,"Suite 605, 251 Oxford Street, Bondi Junction NSW 2022, Australia",Bondi Junction,2022,-33.8913574,151.2527739,,0,FALSE
1545,Hawkesbury District Health Service,,"Cnr Day & Macquarie Street, Windsor NSW 2756, Australia",Windsor,2756,-33.6099299,150.8178299,,0,FALSE
1869,Healthwoods Specialist Centre,,"53 Cowper Street, Granville NSW 2142, Australia",Granville,2142,-33.8312504,151.0125905,,0,FALSE
1885,Hills Private Hospital,,"499 Windsor Road, Baulkham Hills NSW 2153, Australia",Baulkham Hills,2153,-33.74371,150.9827855,,0,FALSE
1523,Hirondelle Private Hospital,,"10 Wyvern Avenuenue, Chatswood NSW 2067, Australia",Chatswood,2067,-33.7898187,151.1786892,,0,FALSE
1862,Holroyd Private Hospital,,"123 Chetwynd Rd, Guildford NSW 2161, Australia",Guildford,2161,-33.8459361,150.9793076,,0,FALSE
1992,Hospital for Specialist Surgery,,"17-19 Soleny Circuit, Baulkham Hills NSW 2153, Australia",Baulkham Hills,2153,-33.731137,150.9636547,,0,FALSE
1253,Hunter Valley Private Hospital,,"20 Mawson Street, Shortland NSW 2307, Australia",Shortland,2307,-32.8831335,151.6952879,,0,FALSE
1848,Hunters Hill Private Hospital,,"9 Mount Street, Hunters Hill NSW 2110, Australia",Hunters Hill,2110,-33.8349292,151.1504108,,0,FALSE
1954,Hurstville Private Hospital,,"37 Gloucester Road, Hurstville NSW 2220, Australia",Hurstville,2220,-33.9617859,151.096349,,0,FALSE
1942,Hyperbaric Health,,"46-50 Kent Road, Mascot NSW 2020, Australia",Mascot,2020,-33.9234277,151.1834374,,0,FALSE
2003,Icon Integrated Cancer Centre,,"1-3 Macarthur Avenue, Revesby NSW 2212, Australia",Revesby,2212,-33.9539649,151.0153058,,0,FALSE
1898,Inner West Endoscopy Centre,,"311 Marrickville Road, Marrickville NSW 2204, Australia",Marrickville,2204,-33.9088065,151.1536731,,0,FALSE
1896,Insight Clinic Private Hospital,,"Level-5, 470 Wodonga Place, Albury NSW 2640, Australia",Albury,2640,-36.0816335,146.9111237,,0,FALSE
1813,Jarrah House,,"1430 Anzac Parade, Little Bay NSW 2036, Australia",Little Bay,2036,-33.9816014,151.2438816,,0,FALSE
1661,Junee Correctional Centre,,"Park Lane, Junee NSW 2663, Australia",Junee,2663,-34.8572409,147.5780638,,0,FALSE
1829,Kareena Private Hospital,,"86 Kareena Road, Caringbah NSW 2229, Australia",Caringbah,2229,-34.03461,151.1148422,,0,FALSE
1203,Kingsgrove Day Hospital,,"322 Kingsgrove Road, Kingsgrove NSW 2208, Australia",Kingsgrove,2208,-33.9436079,151.1022227,,0,FALSE
1991,Kingsway Day Surgery,,"527-533 Kingsway, Miranda NSW 2228, Australia",Miranda,2228,-34.0340547,151.1040551,,0,FALSE
1842,Kurrajong & District Community Nursing Home,,"129 Old Bells Line of Road, Kurrajong NSW 2758, Australia",Kurrajong,2758,-33.55391,150.6630012,,0,FALSE
1644,Lady Davidson Private Hospital,,"Bobbin Head Road, North Turramurra NSW 2074, Australia",North Turramurra,2074,-33.6608067,151.1599474,,0,FALSE
1559,Lake Macquarie Private Hospital,,"3 Sydney Street, Gateshead NSW 2290, Australia",Gateshead,2290,-32.9816873,151.6918464,,0,FALSE
1711,Lawrence Hargrave Private Hospital,,"72 Phillip Street, Thirroul NSW 2515, Australia",Thirroul,2515,-34.3105305,150.9177218,,0,FALSE
1859,Lingard Private Hospital,,"23 Merewether Street, Merewether NSW 2291, Australia",Merewether,2291,-32.940053,151.7563216,,0,FALSE
1825,Lismore Private Day Surgery,,"77 Uralba Street, Lismore NSW 2480, Australia",Lismore,2480,-28.8095672,153.2927914,,0,FALSE
1832,Lithgow Community Private Hospital,,"Great Western Highway, Lithgow NSW 2790, Australia",Lithgow,2790,-33.4431975,150.136845,,0,FALSE
1876,Liverpool Day Surgery,,"105-119 Longstaff Avenue, Moorebank NSW 2170, Australia",Moorebank,2170,-33.9262172,150.9537216,,0,FALSE
1960,Liverpool Eye Surgery,,"Ground Floor, 1 Moore Street, Liverpool NSW 2170, Australia",Liverpool,2170,-33.922662,150.926629,,0,FALSE
1953,Longueville Private Hospital,,"47 Kenneth Street, Longueville NSW 2066, Australia",Longueville,2066,-33.8273616,151.1698128,,0,FALSE
1946,Macquarie University Hospital,,"3 Technology Place, Macquarie University NSW 2109, Australia",Macquarie University,2109,-33.7734071,151.1179303,,0,FALSE
1948,Macqurie Street Day Surgery,,"Level 11, 187 Macqurie Street, Sydney NSW 2000, Australia",Sydney,2000,-33.8669778,151.2120706,,0,FALSE
1889,Maitland Private Hospital,,"175 Chisholm Road, Maitland NSW 2323, Australia",Maitland,2323,-32.7653773,151.5978794,,0,FALSE
1233,Manly Waters Private Hospital,,"17 Cove Avenuene, Manly NSW 2095, Australia",Manly,2095,-33.8051365,151.284521,,0,FALSE
1887,Marie Stopes International,,"33 Santley Crescent, Kingswood NSW 2747, Australia",Kingswood,2747,-33.7595946,150.720935,,0,FALSE
1963,Marie Stopes International,,"163 Lambton Road, Broadmeadow NSW 2292, Australia",Broadmeadow,2292,-32.923448,151.7235065,,0,FALSE
1646,Marsden Eye Surgery Centre,,"Level 1, 152 Marsden Street, Parramatta NSW 2150, Australia",Parramatta,2150,-33.8136492,151.001913,,0,FALSE
1990,Mater Cancer Care,,"25 Rockdale Road, Crows Nest NSW 2065, Australia",Crows Nest,2065,-33.8123685,151.2103835,,0,FALSE
1529,Mater Hospital Sydney,,"Rocklands Road, North Sydney NSW 2060, Australia",North Sydney,2060,-33.8304307,151.2028348,,0,FALSE
1957,Mayo Private Hospital,,"2 Potoroo Drive, Taree NSW 2430, Australia",Taree,2430,-31.8818025,152.4320382,,0,FALSE
1823,Metropolitan Rehabilitation Hospital,,"275 Addison Road, Petersham NSW 2049, Australia",Petersham,2049,-33.8990407,151.1558986,,0,FALSE
1764,Metwest Surgical,,"17 Hereward Hwy, Blacktown NSW 2148, Australia",Blacktown,2148,-33.7741734,150.9126697,,0,FALSE
1844,Minchinbury Community Hospital,,"Cnr Great Western Hwy & Ruperts Wood Road, Rooty Hill NSW 2770, Australia",Rooty Hill,2770,-33.7823274,150.8276639,,0,FALSE
1986,Monash IVF Mosman,,"Level 1, 357 Military Road, Mosman NSW 2088, Australia",Mosman,2088,-33.826705,151.2326083,,0,FALSE
1769,Mosman Private Hospital,,"1 Ellamatta Avenue, Mosman NSW 2088, Australia",Mosman,2088,-33.8352498,151.2476611,,0,FALSE
1843,Mount St Joseph's Nursing Home,,"70 Market Street, Randwick NSW 2031, Australia",Randwick,2031,-33.9053445,151.2465955,,0,FALSE
1532,Mt Wilga Private Hospital,,"2 Manor Road, Hornsby NSW 2077, Australia",Hornsby,2077,-33.692591,151.093101,,0,FALSE
1907,National Day Surgery,,"Level-1,1 Derby Street, Kogarah NSW 2217, Australia",Kogarah,2217,-33.9654609,151.1325625,,0,FALSE
1583,Navorina Nursing Home,,"5-7 MacAuley Street, Deniliquin NSW 2710, Australia",Deniliquin,2710,-35.5230433,144.9624247,,0,FALSE
1849,Nepean Private Hospital,,"1-9 Barber Avenue, Kingswood NSW 2747, Australia",Kingswood,2747,-33.7579537,150.7132396,,0,FALSE
1973,Newcastle Endoscopy Centre,,"20-22 Smith Street, Charlestown NSW 2290, Australia",Charlestown,2290,-32.9631108,151.69764,,0,FALSE
1944,Newcastle Eye Hospital,,"182 Christo Road, Waratah NSW 2298, Australia",Waratah,2298,-32.9098676,151.7175883,,0,FALSE
1882,Newcastle Private Hospital,,"14 Lookout Road, New Lambton Heights NSW 2305, Australia",New Lambton Heights,2305,-32.9222571,151.6992596,,0,FALSE
1653,North Shore Private Hospital,,"3 Westbourne Street, St Leonards NSW 2065, Australia",St Leonards,2065,-33.8212101,151.1910762,,0,FALSE
1824,North Shore Specialist Day Surgery,,"176 Pacific Highway, Greenwich NSW 2065, Australia",Greenwich,2065,-33.8235812,151.1872487,,0,FALSE
1971,Northern Cancer Institute,,"Level 1 & 2, 38 Pacific Highway, St Leonards NSW 2065, Australia",St Leonards,2065,-33.8232725,151.1947469,,0,FALSE
1945,Northern Cancer Institute - Frenchs Forest,,"49 Frenchs Forest Road, Frenchs Forest NSW 2086, Australia",Frenchs Forest,2086,-33.7516648,151.2397367,,0,FALSE
1543,Northside Clinic,,"2 Greenwich Road, Greenwich NSW 2065, Australia",Greenwich,2065,-33.8250394,151.1886401,,0,FALSE
1847,Northside Cremorne Clinic,,"3 Harrison Street, Cremorne NSW 2090, Australia",Cremorne,2090,-33.8335526,151.2228635,,0,FALSE
1977,Northside Macarthur Clinic,,"92-96 Dumaresq Street, Campbelltown NSW 2560, Australia",Campbelltown,2560,-34.0720072,150.8169421,,0,FALSE
1765,Northside West Clinic,,"23-27 Lytton Street, Wentworthville NSW 2145, Australia",Wentworthville,2145,-33.810852,150.9745186,,0,FALSE
1972,Norwest Day Hospital,,"Suite 102, 9 Norbrik Drive, Bella Vista NSW 2153, Australia",Bella Vista,2153,-33.7446766,150.9538228,,0,FALSE
1941,Norwest Private Hospital,,"11 Norbrik Drive, Bella Vista NSW 2153, Australia",Bella Vista,2153,-33.7454058,150.9544536,,0,FALSE
1766,Nowra Private Hospital,,"Weeroona Place, Nowra NSW 2541, Australia",Nowra,2541,-34.8926407,150.6073728,,0,FALSE
1361,Oral Surgery Day Centre,,"Suite 10, 16-18 Malvern Street, Chatswood NSW 2067, Australia",Chatswood,2067,-33.7935332,151.1854262,,0,FALSE
1782,Orana Radiology,,"168-172 Brisbane Street, Dubbo NSW 2830, Australia",Dubbo,2830,-32.2484514,148.6040807,,0,FALSE
1601,Orange Surgry Centre,,"60-62 McNamara Street, Orange NSW 2800, Australia",Orange,2800,-33.2829771,149.1027595,,0,FALSE
1994,Pennant Hills Day Surgery,,"361-363 Pennant Hills Road, Pennant Hills NSW 2120, Australia",Pennant Hills,2120,-33.7383029,151.074352,,0,FALSE
1600,Perfect Vision Eye Surgery,,"Suite 3, Mddison Bldg 25-29 Hunter Street, Hornsby NSW 2077, Australia",Hornsby,2077,-33.703361,151.100695,,0,FALSE
1517,Pittwater Day Surgery,,"Suite 202, 20 Bungan Street, Mona Vale NSW 2103, Australia",Mona Vale,2103,-33.6777421,151.3023206,,0,FALSE
1984,Port Macquarie Ophthalmic Surgery,,"35 Ackroyd Street, Port Macquarie NSW 2444, Australia",Port Macquarie,2444,-31.4354704,152.9006724,,0,FALSE
1850,Port Macquarie Private Hospital,,"86 Lake Road, Port Macquarie NSW 2444, Australia",Port Macquarie,2444,-31.4420365,152.9092839,,0,FALSE
1883,Presbyterian Aged Care Sydney,,"74 Brown Street, Paddington NSW 2021, Australia",Paddington,2021,-33.8812894,151.2263614,,0,FALSE
1800,President Private Hospital,,"Cnr Hotham Rd & President Avenue, Kirrawee NSW 2232, Australia",Kirrawee,2232,-34.0370097,151.0799089,,0,FALSE
1738,Prince of Wales Private Hospital,,"Barker Street, Randwick NSW 2031, Australia",Randwick,2031,-33.9193748,151.2432261,,0,FALSE
1342,Randwick Day Surgery,,"2 Eurimbla Avenue, Randwick NSW 2031, Australia",Randwick,2031,-33.916679,151.2372773,,0,FALSE
1564,Regional Imaging Border,,"3 Ramsay Place, Albury NSW 2640, Australia",Albury,2640,-36.075753,146.8835491,,0,FALSE
1816,Regional Imaging Cardiovascular Centre,,"36 Hardy Avenue, Wagga Wagga NSW 2650, Australia",Wagga Wagga,2650,-35.118499,147.3536255,,0,FALSE
1817,Regional Imaging Riverina,,"36 Hardy Avenue, Wagga Wagga NSW 2650, Australia",Wagga Wagga,2650,-35.118499,147.3536255,,0,FALSE
1651,Riverina Cancer Care Centre,,"31 Meurant Avenue, Wagga Wagga NSW 2650, Australia",Wagga Wagga,2650,-35.1198194,147.3521649,,0,FALSE
1983,Riverina Day Surgery,,"2-8 Meurant Avenue, Wagga Wagga NSW 2650, Australia",Wagga Wagga,2650,-35.1210853,147.3543621,,0,FALSE
1743,Rosemont Endoscopy Centre,,"56 Rosemont Street, Wollongong NSW 2500, Australia",Wollongong,2500,-34.425249,150.8771677,,0,FALSE
1690,Royal Far West,,"19-21 South Steyne, Manly NSW 2095, Australia",Manly,2095,-33.7986747,151.2887328,,0,FALSE
1981,Royal Rehab Private Hospital,,"227 Morrison Road, Ryde NSW 2112, Australia",Ryde,2112,-33.8225054,151.1081826,,0,FALSE
1966,Shellharbour Private Hospital,,"27 Captain Cook Drive, Barrack Heights NSW 2527, Australia",Barrack Heights,2527,-34.5589551,150.8482683,,0,FALSE
1838,Sight Foundation Theatre,,"Level 3,Sydney Hospital & Sydney Eye Hospital, 8 Macquarie Street, Sydney NSW 2000, Australia",Sydney,2000,-33.8681622,151.2122224,,0,FALSE
1976,Skin & Cancer Foundation Australia,,"121 Crown Street, Darlinghurst NSW 2010, Australia",Darlinghurst,2010,-33.8752504,151.2159316,,0,FALSE
1225,Skin & Cancer Foundation,,"7 Ashley Lane, Westmead NSW 2145, Australia",Westmead,2145,-33.8073055,150.9887098,,0,FALSE
1974,South Coast Private,,"112 Burelli Street, Wollongong NSW 2500, Australia",Wollongong,2500,-34.4260307,150.8901379,,0,FALSE
1810,South Pacific Private Hospital,,"24 Beach Street, Curl Curl NSW 2096, Australia",Curl Curl,2096,-33.7749769,151.2915278,,0,FALSE
1815,South Western Endoscopy Centre,,"20-22 Bigge Street, Liverpool NSW 2170, Australia",Liverpool,2170,-33.9164157,150.9284809,,0,FALSE
1410,Southern Highlands Private Hospital,,"Bowral Street, Bowral NSW 2576, Australia",Bowral,2576,-34.481229,150.4413826,,0,FALSE
1404,Southern Medical Day Care Centre,,"410 Crown Street, Wollongong NSW 2500, Australia",Wollongong,2500,-34.4255055,150.8762026,,0,FALSE
1675,Southern Suburbs Day Procedure Centre,,"47 Regent Street, Kogarah NSW 2217, Australia",Kogarah,2217,-33.9618588,151.1349906,,0,FALSE
1888,Southern Sydney Angiography,,"Level 2, St George Private Hospital, 1 South Street, Kogarah NSW 2217, Australia",Kogarah,2217,-33.9664269,151.1361908,,0,FALSE
1985,Southside Cancer Care Centre,,"Level3, 533 Kingsway, Miranda NSW 2228, Australia",Miranda,2228,-34.0340698,151.104071,,0,FALSE
1890,St George Private Hospital,,"1 South Street, Kogarah NSW 2217, Australia",Kogarah,2217,-33.9669837,151.1343559,,0,FALSE
1873,St John of God Burwood Hospital,,"13 Grantham Street, Burwood NSW 2134, Australia",Burwood,2134,-33.8699118,151.1002984,,0,FALSE
1799,St John of God Richmond Hospital,,"177 Gross Vale Road, Richmond NSW 2754, Australia",Richmond,2754,-33.5937869,150.7019331,,0,FALSE
1797,St Luke's Hospital,,"18 Roslyn Street, Potts Point NSW 2011, Australia",Potts Point,2011,-33.8745397,151.2262577,,0,FALSE
2000,St Vincents Private Community Hospital Griffith,,"41-45 Animoo Avenue, Griffith NSW 2680, Australia",Griffith,2680,-34.2807129,146.0437155,,0,FALSE
1223,St Vincents Private Hospital,,"406 Victoria Street, Darlinghurst NSW 2010, Australia",Darlinghurst,2010,-33.8807719,151.2200585,,0,FALSE
1610,St Vincents Private Hospital Lismore,,"Dalley Street, Lismore NSW 2480, Australia",Lismore,2480,-28.8198873,153.2989785,,0,FALSE
1989,St Vincents Radiation Oncology,,"Level A, 438 Victoria Street, Darlinghurst NSW 2010, Australia",Darlinghurst,2010,-33.8811402,151.2196288,,0,FALSE
1868,Straithfield Private Hospital,,"3 Everton Road, Strathfield NSW 2135, Australia",Strathfield,2135,-33.8719974,151.0978063,,0,FALSE
1715,Surry Hills Day Hospital,,"573 Crown Street, Surry Hills NSW 2010, Australia",Surry Hills,2010,-33.8909993,151.2127044,,0,FALSE
1340,Sussex Day Surgery,,"Level 5, 401 Sussex Street, Haymarket NSW 2000, Australia",Haymarket,2000,-33.8782323,151.2043881,,0,FALSE
1747,Sutherland Heart Clinic,,"Level 2, Sutherland Hospital, The Kingsway, Caringbah NSW 2229, Australia",Caringbah,2229,-34.0372028,151.114948,,0,FALSE
1996,Sydney Day Hospital,,"Level 1, 187 Macquarie St,, Sydney NSW 2000, Australia",Sydney,2000,-33.8669778,151.2120706,,0,FALSE
1856,Sydney Day Surgery,,"2nd Floor, 213-219 Darlinghurst Road, Darlinghurst NSW 2010, Australia",Darlinghurst,2010,-33.8764395,151.220979,,0,FALSE
1591,Sydney Day Surgery Prince Alfred,,"RPAH Medical Centre, 106/100 Carillon Avenue, Newtown NSW 2042, Australia",Newtown,2042,-33.8916757,151.1834304,,0,FALSE
1821,Sydney Eye Specialist Centre,,"2 Middle Street, Kingsford NSW 2032, Australia",Kingsford,2032,-33.9209218,151.2274006,,0,FALSE
1707,Sydney Oculoplastic Surgery,,"Level 7, 229 Macquarie Street, Sydney NSW 2000, Australia",Sydney,2000,-33.8685664,151.2118558,,0,FALSE
1891,Sydney Retina Clinic & Day Surgery,,"13 Floor, 187 Macquarie Street, Sydney NSW 2000, Australia",Sydney,2000,-33.8669778,151.2120706,,0,FALSE
1908,Sydney Southwest Private Hospital,,"40 Bigge Street, Liverpool NSW 2170, Australia",Liverpool,2170,-33.9168685,150.9286517,,0,FALSE
2001,Sydney Specialist Day Hospital,,"Level 5, 7 Help Street, Chatswood NSW 2067, Australia",Chatswood,2067,-33.7953381,151.1799268,,0,FALSE
1993,Sydney Surgical Centre,,"Level 1, 166 - 168 Belmore Road, Randwick NSW 2301, Australia",Randwick,2301,-33.9169376,151.2408588,,0,FALSE
1574,Tamara Private Hospital,,"2-6 Dean Street, Tamworth NSW 2340, Australia",Tamworth,2340,-31.0782456,150.9221679,,0,FALSE
1999,The Border Cancer Hospital,,"201-239 Borella Road, Albury NSW 2640, Australia",Albury,2640,-36.0785958,146.9375219,,0,FALSE
1684,The Boulevarde Day Surgical Centre,,"8/164-168 The Boulevarde, Fairfield Heights NSW 2165, Australia",Fairfield Heights,2165,-33.8648645,150.9387157,,0,FALSE
3003,The Cosmetic Institute Parramatta P/L,,"10-14 Smith Street, Parramatta NSW 2150, Australia",Parramatta,2150,-33.8154449,151.0063383,,0,FALSE
1961,The Hills Clinic,,"15 Memorial Avenue, Kellyville NSW 2155, Australia",Kellyville,2155,-33.7172556,150.9526901,,0,FALSE
1686,The Hornsby Sleep Disorders & Diagnostic Centre,,"104 Balmoral Street, Waitara NSW 2077, Australia",Waitara,2077,-33.7022401,151.1106304,,0,FALSE
1958,The Ocuplastic Centre Sydney,,"Suite - 25, 20-24 Gibbs Street, Miranda NSW 2228, Australia",Miranda,2228,-34.0370186,151.1030274,,0,FALSE
1871,The San Day Surgery Hornsby,,"1A Northcote Road, Hornsby NSW 2077, Australia",Hornsby,2077,-33.7019458,151.1106474,,0,FALSE
1880,The Sydney Clinic,,"22 Murray Street, Bronte NSW 2024, Australia",Bronte,2024,-33.9012409,151.2609799,,0,FALSE
1577,The Sydney Clinic for Gastrointestinal Diseases,,"Level 10, 1 Newland Street, Bondi Junction NSW 2022, Australia",Bondi Junction,2022,-33.8919922,151.2471252,,0,FALSE
1831,The Sydney Private Hospital,,"63 Victoria Road, Ashfield NSW 2131, Australia",Ashfield,2131,-33.8938313,151.1293107,,0,FALSE
1593,Toronto Private Hospital,,"Cary Street, Toronto NSW 2283, Australia",Toronto,2283,-33.0032311,151.5953736,,0,FALSE
1900,Tweed Day Surgery,,"38-44 Boyd Street, Tweed Heads NSW 2485, Australia",Tweed Heads,2485,-28.1787857,153.540257,,0,FALSE
1903,Ulladulla Endoscopy & Medical Centre,,"111 Princess Highway, Ulladulla NSW 2539, Australia",Ulladulla,2539,-35.3587157,150.4735021,,0,FALSE
1877,Villawood Immigration Detention Centre,,"15 Birmingham Avenue, Villawood NSW 2163, Australia",Villawood,2163,-33.8745737,150.9892305,,0,FALSE
1861,Vision Day Surgery Chatswood,,"Level-4, 270 Victoria Avenue, Chatswood NSW 2067, Australia",Chatswood,2067,-33.7952562,151.1873391,,0,FALSE
1955,"Vision Day Surgery, Hurstville",,"8-10 Woniora Road, Hurstville NSW 2220, Australia",Hurstville,2220,-33.9666117,151.1003356,,0,FALSE
1587,Vista Laser Eye Clinic,,"1 McLaren Street, North Sydney NSW 2060, Australia",North Sydney,2060,-33.8345278,151.2053955,,0,FALSE
1845,Wagga Endoscopy Centre,,"50 Best Street, Wagga Wagga NSW 2650, Australia",Wagga Wagga,2650,-35.115784,147.3658211,,0,FALSE
1967,Waratah Imaging,,"Level B1, 31 Dora Street, Hurstville NSW 2220, Australia",Hurstville,2220,-33.9644033,151.1005009,,0,FALSE
1951,Waratah Private Hospital,,"Level -1, 31 Dora Street, Hurstville NSW 2220, Australia",Hurstville,2220,-33.964391,151.100516,,0,FALSE
1854,Warners Bay Private Hospital,,"Fairfax Road, Warners Bay NSW 2282, Australia",Warners Bay,2282,-32.9598977,151.6421172,,0,FALSE
1979,Warringah Day Surgery,,"6-12 Dale Street, Brookvale NSW 2100, Australia",Brookvale,2100,-33.7652818,151.2683714,,0,FALSE
1730,Wesley Hospital Ashfield,,"91 Milton Street, Ashfield NSW 2131, Australia",Ashfield,2131,-33.8922665,151.1168434,,0,FALSE
1835,Wesley Hospital Kogarah,,"7 Blake Street, Kogarah NSW 2217, Australia",Kogarah,2217,-33.9683661,151.1288351,,0,FALSE
1975,Western Sydney Private Oncology and Infusion Centre,,"16-18 Mons Street, Westmead NSW 2145, Australia",Westmead,2145,-33.8020246,150.9828786,,0,FALSE
1775,Westmead Centre,,"27 Railway Parade, Westmead NSW 2145, Australia",Westmead,2145,-33.8075767,150.9879351,,0,FALSE
1902,Westmead Private Hospital,,"Cnr Mons & Darcy Road, Westmead NSW 2145, Australia",Westmead,2145,-33.8032877,150.983816,,0,FALSE
1901,Westmead Rehabilitation Hospital,,"7 Coleman Street, Merrylands NSW 2160, Australia",Merrylands,2160,-33.8192885,150.9810587,,0,FALSE
1969,Wingaway Medical Logistics,,"501 Tower Road, Bankstown NSW 2200, Australia",Bankstown,2200,-33.9200331,150.9805117,,0,FALSE
1463,Wollongong Day Surgery,,"354-358 Crown Street, Wollongong NSW 2500, Australia",Wollongong,2500,-34.4257779,150.8815103,,0,FALSE
1997,Wollongong Private Hospital,,"360-364 Crown Street, Wollongong NSW 2500, Australia",Wollongong,2500,-34.4257065,150.8808373,,0,FALSE
1424,Wolper Jewish Hospital,,"8 Trelawney Street, Woollahra NSW 2025, Australia",Woollahra,2025,-33.8839581,151.2409571,,0,FALSE